[
    {
        "Altitude(m)": 554605.4522479016,
        "Argument of Periapsis(deg)": 0.019868973332140504,
        "Eccentricity": 0.0,
        "Inclination(deg)": 53.0,
        "Latitude(deg)": -2.5069838782795824,
        "Longitude(deg)": -105.50008433544353,
        "Mean Anomaly(deg)": 183.00207860273272,
        "RAAN(deg)": 174.97043010558406,
        "Satellite Name": "Starlink Shell 1 779",
        "Satellite Number": 779,
        "Semi-Major Axis(m)": 6931778.249405717,
        "Time(s)": 570
    },
    {
        "Altitude(m)": 554685.9821923426,
        "Argument of Periapsis(deg)": 0.02021755181165174,
        "Eccentricity": 0.0,
        "Inclination(deg)": 53.0,
        "Latitude(deg)": -3.0105271082525884,
        "Longitude(deg)": -105.16388864660858,
        "Mean Anomaly(deg)": 183.62890980628944,
        "RAAN(deg)": 174.96991133550657,
        "Satellite Name": "Starlink Shell 1 779",
        "Satellite Number": 779,
        "Semi-Major Axis(m)": 6931778.249405717,
        "Time(s)": 580
    },
    {
        "Altitude(m)": 554769.2364354082,
        "Argument of Periapsis(deg)": 0.020566130291162974,
        "Eccentricity": 0.0,
        "Inclination(deg)": 53.0,
        "Latitude(deg)": -3.5139236260075593,
        "Longitude(deg)": -104.82735436584264,
        "Mean Anomaly(deg)": 184.2557410098462,
        "RAAN(deg)": 174.96939256542913,
        "Satellite Name": "Starlink Shell 1 779",
        "Satellite Number": 779,
        "Semi-Major Axis(m)": 6931778.249405717,
        "Time(s)": 590
    },
    {
        "Altitude(m)": 554855.1982664934,
        "Argument of Periapsis(deg)": 0.020914708770674213,
        "Eccentricity": 0.0,
        "Inclination(deg)": 53.0,
        "Latitude(deg)": -4.017150318183318,
        "Longitude(deg)": -104.4904234773883,
        "Mean Anomaly(deg)": 184.8825722134029,
        "RAAN(deg)": 174.96887379535164,
        "Satellite Name": "Starlink Shell 1 779",
        "Satellite Number": 779,
        "Semi-Major Axis(m)": 6931778.249405717,
        "Time(s)": 600
    },
    {
        "Altitude(m)": 554943.8496450309,
        "Argument of Periapsis(deg)": 0.021263287250185448,
        "Eccentricity": 0.0,
        "Inclination(deg)": 53.0,
        "Latitude(deg)": -4.520183993173313,
        "Longitude(deg)": -104.15303779490885,
        "Mean Anomaly(deg)": -174.4905965830404,
        "RAAN(deg)": 174.96835502527415,
        "Satellite Name": "Starlink Shell 1 779",
        "Satellite Number": 779,
        "Semi-Major Axis(m)": 6931778.249405717,
        "Time(s)": 610
    },
    {
        "Altitude(m)": 555035.1712067573,
        "Argument of Periapsis(deg)": 0.021611865729696686,
        "Eccentricity": 0.0,
        "Inclination(deg)": 53.0,
        "Latitude(deg)": -5.0230013691524125,
        "Longitude(deg)": -103.81513843180414,
        "Mean Anomaly(deg)": -173.86376537948365,
        "RAAN(deg)": 174.9678362551967,
        "Satellite Name": "Starlink Shell 1 779",
        "Satellite Number": 779,
        "Semi-Major Axis(m)": 6931778.249405717,
        "Time(s)": 620
    },
    {
        "Altitude(m)": 555129.1422706206,
        "Argument of Periapsis(deg)": 0.02196044420920792,
        "Eccentricity": 0.0,
        "Inclination(deg)": 53.0,
        "Latitude(deg)": -5.525579062014238,
        "Longitude(deg)": -103.47666695244568,
        "Mean Anomaly(deg)": -173.23693417592696,
        "RAAN(deg)": 174.96731748511922,
        "Satellite Name": "Starlink Shell 1 779",
        "Satellite Number": 779,
        "Semi-Major Axis(m)": 6931778.249405717,
        "Time(s)": 630
    },
    {
        "Altitude(m)": 555225.7408463572,
        "Argument of Periapsis(deg)": 0.02230902268871916,
        "Eccentricity": 0.0,
        "Inclination(deg)": 53.0,
        "Latitude(deg)": -6.027893573211676,
        "Longitude(deg)": -103.13756400189727,
        "Mean Anomaly(deg)": -172.61010297237024,
        "RAAN(deg)": 174.96679871504173,
        "Satellite Name": "Starlink Shell 1 779",
        "Satellite Number": 779,
        "Semi-Major Axis(m)": 6931778.249405717,
        "Time(s)": 640
    },
    {
        "Altitude(m)": 555324.9436427463,
        "Argument of Periapsis(deg)": 0.022657601168230398,
        "Eccentricity": 0.0,
        "Inclination(deg)": 53.0,
        "Latitude(deg)": -6.529921277484587,
        "Longitude(deg)": -102.79777045702859,
        "Mean Anomaly(deg)": -171.9832717688135,
        "RAAN(deg)": 174.96627994496427,
        "Satellite Name": "Starlink Shell 1 779",
        "Satellite Number": 779,
        "Semi-Major Axis(m)": 6931778.249405717,
        "Time(s)": 650
    },
    {
        "Altitude(m)": 555426.726076471,
        "Argument of Periapsis(deg)": 0.023006179647741636,
        "Eccentricity": 0.0,
        "Inclination(deg)": 53.0,
        "Latitude(deg)": -7.031638410466786,
        "Longitude(deg)": -102.45722689658967,
        "Mean Anomaly(deg)": -171.35644056525683,
        "RAAN(deg)": 174.9657611748868,
        "Satellite Name": "Starlink Shell 1 779",
        "Satellite Number": 779,
        "Semi-Major Axis(m)": 6931778.249405717,
        "Time(s)": 660
    },
    {
        "Altitude(m)": 555531.0622816671,
        "Argument of Periapsis(deg)": 0.023354758127252868,
        "Eccentricity": 0.0,
        "Inclination(deg)": 53.0,
        "Latitude(deg)": -7.5330210561593605,
        "Longitude(deg)": -102.11587307121223,
        "Mean Anomaly(deg)": -170.7296093617001,
        "RAAN(deg)": 174.96524240480932,
        "Satellite Name": "Starlink Shell 1 779",
        "Satellite Number": 779,
        "Semi-Major Axis(m)": 6931778.249405717,
        "Time(s)": 670
    },
    {
        "Altitude(m)": 555637.9251200784,
        "Argument of Periapsis(deg)": 0.023703336606764106,
        "Eccentricity": 0.0,
        "Inclination(deg)": 53.0,
        "Latitude(deg)": -8.03404513425731,
        "Longitude(deg)": -101.7736488862082,
        "Mean Anomaly(deg)": -170.1027781581434,
        "RAAN(deg)": 174.96472363473185,
        "Satellite Name": "Starlink Shell 1 779",
        "Satellite Number": 779,
        "Semi-Major Axis(m)": 6931778.249405717,
        "Time(s)": 680
    },
    {
        "Altitude(m)": 555747.2861918675,
        "Argument of Periapsis(deg)": 0.024051915086275345,
        "Eccentricity": 0.0,
        "Inclination(deg)": 53.0,
        "Latitude(deg)": -8.534686387320674,
        "Longitude(deg)": -101.43049387141487,
        "Mean Anomaly(deg)": -169.47594695458665,
        "RAAN(deg)": 174.9642048646544,
        "Satellite Name": "Starlink Shell 1 779",
        "Satellite Number": 779,
        "Semi-Major Axis(m)": 6931778.249405717,
        "Time(s)": 690
    },
    {
        "Altitude(m)": 555859.1158470477,
        "Argument of Periapsis(deg)": 0.024400493565786583,
        "Eccentricity": 0.0,
        "Inclination(deg)": 53.0,
        "Latitude(deg)": -9.034920367776147,
        "Longitude(deg)": -101.08634665095772,
        "Mean Anomaly(deg)": -168.84911575102996,
        "RAAN(deg)": 174.9636860945769,
        "Satellite Name": "Starlink Shell 1 779",
        "Satellite Number": 779,
        "Semi-Major Axis(m)": 6931778.249405717,
        "Time(s)": 700
    },
    {
        "Altitude(m)": 555973.3831975497,
        "Argument of Periapsis(deg)": 0.024749072045297815,
        "Eccentricity": 0.0,
        "Inclination(deg)": 53.0,
        "Latitude(deg)": -9.53472242473794,
        "Longitude(deg)": -100.74114592580376,
        "Mean Anomaly(deg)": -168.2222845474732,
        "RAAN(deg)": 174.96316732449944,
        "Satellite Name": "Starlink Shell 1 779",
        "Satellite Number": 779,
        "Semi-Major Axis(m)": 6931778.249405717,
        "Time(s)": 710
    },
    {
        "Altitude(m)": 556090.056129876,
        "Argument of Periapsis(deg)": 0.025097650524809053,
        "Eccentricity": 0.0,
        "Inclination(deg)": 53.0,
        "Latitude(deg)": -10.034067690636224,
        "Longitude(deg)": -100.39482994335681,
        "Mean Anomaly(deg)": -167.59545334391655,
        "RAAN(deg)": 174.96264855442197,
        "Satellite Name": "Starlink Shell 1 779",
        "Satellite Number": 779,
        "Semi-Major Axis(m)": 6931778.249405717,
        "Time(s)": 720
    },
    {
        "Altitude(m)": 556209.1013184016,
        "Argument of Periapsis(deg)": 0.02544622900432029,
        "Eccentricity": 0.0,
        "Inclination(deg)": 53.0,
        "Latitude(deg)": -10.532931067641647,
        "Longitude(deg)": -100.04733596696933,
        "Mean Anomaly(deg)": -166.9686221403598,
        "RAAN(deg)": 174.96212978434448,
        "Satellite Name": "Starlink Shell 1 779",
        "Satellite Number": 779,
        "Semi-Major Axis(m)": 6931778.249405717,
        "Time(s)": 730
    },
    {
        "Altitude(m)": 556330.4842392461,
        "Argument of Periapsis(deg)": 0.02579480748383153,
        "Eccentricity": 0.0,
        "Inclination(deg)": 53.0,
        "Latitude(deg)": -11.031287213871986,
        "Longitude(deg)": -99.69860125824636,
        "Mean Anomaly(deg)": -166.34179093680305,
        "RAAN(deg)": 174.96161101426702,
        "Satellite Name": "Starlink Shell 1 779",
        "Satellite Number": 779,
        "Semi-Major Axis(m)": 6931778.249405717,
        "Time(s)": 740
    },
    {
        "Altitude(m)": 556454.1691847559,
        "Argument of Periapsis(deg)": 0.026143385963342765,
        "Eccentricity": 0.0,
        "Inclination(deg)": 53.0,
        "Latitude(deg)": -11.52911052937125,
        "Longitude(deg)": -99.34856254639621,
        "Mean Anomaly(deg)": -165.71495973324636,
        "RAAN(deg)": 174.96109224418956,
        "Satellite Name": "Starlink Shell 1 779",
        "Satellite Number": 779,
        "Semi-Major Axis(m)": 6931778.249405717,
        "Time(s)": 750
    }
]